#dP2021  2 22  0  0  0.00000000      96 __u+U ITR00 FIT  IAC
## 2146  86400.00000000   900.00000000 59267 0.0000000000000
+  126   C01C02C03C04C05C06C07C08C09C10C11C12C13C14C16C19C20
+        C21C22C23C24C25C26C27C28C29C30C32C33C34C35C36C37C38
+        C39C40C41C42C43C44C45C46E01E02E03E04E05E07E08E09E11
+        E12E13E14E15E18E19E21E24E25E26E27E30E31E33E36G01G02
+        G03G04G05G06G07G08G09G10G11G12G13G14G15G16G17G18G19
+        G20G21G22G23G24G25G26G27G28G29G30G31G32J01J02J03J07
+        R01R02R03R04R05R06R07R08R09R10R11R12R13R14R15R16R17
+        R18R19R20R21R22R23R24  0  0  0  0  0  0  0  0  0  0
++        13 13 13 13 14  9  9 10  9  9  9  9  9  9  9  8  7
++         8  8  8  8  8  8  8  8  8  8  8  8  8  8  8  8  9
++         9  9  9  9  8  8  8  9  4  4  4  5  4  4  4  4  5
++         4  4  5  4  4  5  4  4  5  5  5  4  4  5  6  3  4
++         3  4  4  3  4  4  4  4  5  4  4  4  4  4  3  4  3
++         4  4  3  4  4  4  4  4  4  4  4  4  3  9  9  9 14
++         6  6  6  6  6 13  5  5  6 13  7  6  6  6  6  6  6
++         6  6  7  6  7 13  6  0  0  0  0  0  0  0  0  0  0
%c M  cc GPS ccc cccc cccc cccc cccc ccccc ccccc ccccc ccccc
%c cc cc ccc ccc cccc cccc cccc cccc ccccc ccccc ccccc ccccc
%f  0.0000000  0.000000000  0.00000000000  0.000000000000000
%f  0.0000000  0.000000000  0.00000000000  0.000000000000000
%i    0    0    0    0      0      0      0      0         0
%i    0    0    0    0      0      0      0      0         0
/* INFORMATION & ANALYSIS CENTER (IAC)            RAPID DATA
/* S/V CLOCKS ARE ALIGNED TO GNSS TIME                      
/* G:C1WC2W R:C1PC2P E:C1XC5X C:C2IC6I J:C1CC2S             
/* PCV:IGS14_2134 OL/AL:FES2004  NONE     YN ORB:CoN CLK:CoN
*  2021 02 22  7  0  0.00000000
PC01 -34363.117551  24482.284418    310.748870   -699.216390
PC02   4390.183704  41876.595960  -1218.338972    493.309331
PC03 -14665.033217  39492.133335  -1321.660903   -441.469804
PC04 -39657.859736  14372.310344     26.914507   -340.380735
PC05  21864.388193  36011.807427   -918.684950   -806.614207
PC06 -14407.048485  38612.577825  -7106.317614    113.904781
PC07  -9968.823224  25459.277625  32412.989602   -350.871641
PC08 -25310.092518  23437.454779 -24384.843460   -910.009240
PC09  -6050.571152  40875.875907   7379.394653    716.142452
PC10   4045.726269  31614.155506  28004.291651    -82.431367
PC11  -6230.505996 -18881.791431  19631.216922   -908.700568
PC12   6818.431222 -26573.542331   5107.487108    815.541370
PC13  -9494.622497  25311.199328 -32310.465667    151.997880
PC14 -16601.693941 -22311.141416   1953.036304    194.689535
PC16 -12663.596094  39750.889677  -5237.242748   -705.783563
PC19  20782.094997  17089.902281   7457.276773    736.920872
PC20  11016.683797  23791.989497  -9578.201428   -918.541470
PC21   5892.877539 -16527.053981  21713.915836   -850.342834
PC22  18783.935488    339.845296  20647.653960   -889.051437
PC23 -27394.778728   5175.700693   1310.393880   -875.883278
PC24  -3503.406719 -15881.678791 -22691.308977   -765.962185
PC25 -22679.921824  -6670.485239 -14854.318632   -942.235910
PC26  15548.516295 -15365.364650 -17335.895378    945.005450
PC27 -12855.522780  24388.484487   4234.593162    487.434539
PC28 -17985.804009   9701.540079  19010.057553   -106.551994
PC29  12957.888083  10132.077050 -22545.218434    355.783105
PC30    363.432726  24915.515071 -12537.614681    446.972423
PC32  -5749.840564  16585.729118 -21678.623201   -898.781065
PC33 -20833.936604 -17039.151863  -7337.369279   -956.820815
PC34   -798.686442 -24661.728778  13057.310041   -734.381708
PC35  17699.250923 -10024.298505 -19122.578178   -406.388529
PC36  22263.993459   7416.399046  15115.665955   -751.798774
PC37 -16739.902435  14749.217262  16787.390410   -867.515725
PC38 -21885.781200  25759.994042 -25247.632606    131.602294
PC39  -9881.634981  40583.299732  -5216.914884     28.709389
PC40    377.954244  27878.744983  31696.804182    134.074509
PC41 -18912.519647   -544.668195 -20466.820900   -929.804123
PC42 -10405.472306 -23791.413204  10247.834653   -886.682639
PC43 -12755.705324 -10751.132830  22371.733089   -609.027350
PC44  12188.895954 -24732.581863  -4433.824530     51.351223
PC45  27353.137025  -5279.610489  -1388.661706    368.765464
PC46   4444.762355  15572.240051  22724.181853    393.989310
PE01 -21543.108751   6635.529419  19187.006923  -1051.338497
PE02  21429.148887  -6732.276983 -19271.829384    200.200605
PE03  13098.572554 -14223.658832  22406.426597   -401.391161
PE04   -832.095670  27967.652186  -9653.422605   -714.925920
PE05  17853.479933   8062.729881  22191.290292   -302.544519
PE07 -12145.994412 -25431.578080  -9031.556193   -504.054894
PE08    418.297352 -28049.515007   9429.682182   6043.310311
PE09  12311.331532  25301.812500   9212.517765   5757.215695
PE11   7646.525314  14788.841004 -24471.220669   6289.245795
PE12 -11385.874486  23313.107785 -14220.531221   5343.839792
PE13  -7241.629417 -15030.522341  24462.597134    412.493554
PE14 -13025.097252  15481.424173  14787.499356  -1338.479939
PE15  11304.695984 -23337.592083  14295.343625    828.078985
PE18  19713.408328  -8034.165886 -23183.333253  -1463.286771
PE19 -14009.050128  11850.577731 -23222.427440    209.976589
PE21 -28633.688453  -6743.736274   3331.133773   -649.834561
PE24  18654.054861  16990.629817  15436.878560   -756.789477
PE25  28614.974754   6857.486637  -3161.345239   -526.960875
PE26 -21930.207405   2559.376875  19725.200792   2119.743381
PE27 -19337.410527 -16702.689568 -14956.588100     24.679883
PE30   2260.074710 -16608.275470 -24411.098135   3161.311565
PE31  -1284.859423  16783.834263  24349.955915   -478.524576
PE33 -23185.807861  17884.677209   4298.649088   -465.914649
PE36  21508.699734  -2117.470551 -20218.068569    437.314530
PG01  -6886.740294  18038.133191 -18323.756281    756.093994
PG02  22122.075399 -14658.737584   -694.394441   -579.388524
PG03   4372.952239  17791.828344 -19346.368531    -89.630972
PG04  -1793.351604  26422.318157  -1571.664830   -181.902971
PG05  14647.999386  -8561.943369  20330.146231    -34.370084
PG06  22944.713801  -3459.042902 -12909.570754     -2.027666
PG07   8974.891173  12784.750488  21830.673732     67.270987
PG08  -5626.208120  24174.888806   9024.293611    -11.214656
PG09   7334.167842  23640.923479   9537.153532   -325.160481
PG10 -23950.021087 -11509.222537  -2562.103851    -66.767502
PG11  -8257.979212  24406.408170  -7642.709285    -17.750072
PG12   1051.096585 -16486.928193 -21082.615564     -4.537197
PG13  12909.779742 -17002.848202  15587.030789    100.021244
PG14  22972.312080  13265.595676  -1466.503630     98.279730
PG15   3073.246184 -24807.164611   8069.819490   -167.742566
PG16 -16853.708302   4708.681995  19880.901883   -283.813610
PG17  13181.965657   9644.713572 -20513.639435    398.357086
PG18 -11417.122587 -10624.708438  21501.916114    348.335747
PG19  14887.220009    724.210698 -22263.986493    -35.251118
PG20 -19602.680695 -15311.979916   9633.273694    524.573225
PG21 -14007.103140  19026.293628 -10950.114897     97.633041
PG22  -4816.479447  15014.424032 -21181.913805   -674.381843
PG23 -19293.590904 -16506.357435   7840.442949    118.394410
PG24  10652.535114 -19812.181448 -14050.317854      2.002111
PG25 -13681.072288 -18637.586297 -13576.753357     85.436488
PG26 -23335.608170  -1584.577456  12781.273681     48.451538
PG27 -12260.542665  14415.892989  18319.629398    -81.107313
PG28  22762.128592  12750.183233  -3831.663396    612.027801
PG29  -5004.840565 -24105.272902   9873.974861   -299.511658
PG30  19431.723978   4210.860728  17763.045283   -388.458173
PG31 -24205.338877   4976.099358 -10417.820835   -101.566472
PG32 -14673.681720  -7703.571132 -20691.758819     19.527778
PJ01 -19391.181704  23040.964329 -24930.487692   -342.677072
PJ02 -29933.482944  21341.291858  25509.669765      2.246579
PJ03 -30545.171293  26814.678055  16358.954479     -0.964472
PJ07 -25414.953083  33637.022582    -40.108353      0.062504
PR01   -960.939035  16859.523798 -19121.821063     75.373943
PR02  11731.052411  22598.438503   -817.856682    468.009349
PR03  15506.742167  12958.665343  15573.690314     31.198315
PR04  10294.178952  -3699.718388  23069.944826     74.975905
PR05   -537.168441 -18399.873964  17680.924067     66.920692
PR06 -12765.172246 -22099.851539    -97.264462    193.137459
PR07 -15456.743914 -12561.842572 -15927.201910    -42.493540
PR08 -10366.998079   3755.350527 -22948.293938    -57.543715
PR09 -11428.598605 -10172.868330 -20377.491024    -20.516582
PR10 -23909.828893  -4077.995307  -8032.672460    -66.570687
PR11 -23037.346466   4538.676128   9964.718079      2.956369
PR12  -8249.917518  10260.289940  21872.921733    207.022222
PR13  10989.411013   9993.956139  20713.387242    -51.065755
PR14  24207.863335   3871.926834   7067.970058     61.264751
PR15  22922.970149  -4396.550806 -10268.160715    105.268801
PR16   6869.165912 -10758.166264 -22089.956116    -11.632034
PR17  11161.392005   1688.511924 -22857.239164    402.190766
PR18  16108.597043 -13985.457460 -14011.234697     67.477066
PR19  13389.329827 -21659.080748   1537.997113   -133.024950
PR20   1204.559150 -17109.921078  18913.140899   -433.852839
PR21 -11701.225513   -502.015339  22667.968889   -189.486152
PR22 -16149.053007  14656.490251  13136.005076    -99.160905
PR23  -9261.890344  22097.865469  -8742.069937    367.615177
PR24   -129.973333  16855.157896 -19126.530694     32.474808
EOF
